[{"OBJECT_NAME":"ONEWEB-0634","OBJECT_ID":"2023-043AF","EPOCH":"2025-09-15T13:57:59.122656","MEAN_MOTION":13.15549789,"ECCENTRICITY":0.00019766,"INCLINATION":87.9035,"RA_OF_ASC_NODE":314.0275,"ARG_OF_PERICENTER":107.1617,"MEAN_ANOMALY":252.9729,"EPHEMERIS_TYPE":0,"CLASSIFICATION_TYPE":"U","NORAD_CAT_ID":56075,"ELEMENT_SET_NO":999,"REV_AT_EPOCH":12029,"BSTAR":-0.00041674806,"MEAN_MOTION_DOT":-1.44e-6,"MEAN_MOTION_DDOT":0},{"OBJECT_NAME":"ONEWEB-0635","OBJECT_ID":"2023-043AG","EPOCH":"2025-09-15T13:51:09.445824","MEAN_MOTION":13.15549088,"ECCENTRICITY":0.00019816,"INCLINATION":87.9012,"RA_OF_ASC_NODE":313.9909,"ARG_OF_PERICENTER":88.6491,"MEAN_ANOMALY":271.4867,"EPHEMERIS_TYPE":0,"CLASSIFICATION_TYPE":"U","NORAD_CAT_ID":56076,"ELEMENT_SET_NO":999,"REV_AT_EPOCH":12032,"BSTAR":-0.00038629691,"MEAN_MOTION_DOT":-1.33e-6,"MEAN_MOTION_DDOT":0},{"OBJECT_NAME":"ONEWEB-0636","OBJECT_ID":"2023-043AH","EPOCH":"2025-09-15T13:39:44.371584","MEAN_MOTION":13.15549374,"ECCENTRICITY":0.00019548,"INCLINATION":87.9023,"RA_OF_ASC_NODE":314.0093,"ARG_OF_PERICENTER":90.3844,"MEAN_ANOMALY":269.7511,"EPHEMERIS_TYPE":0,"CLASSIFICATION_TYPE":"U","NORAD_CAT_ID":56077,"ELEMENT_SET_NO":999,"REV_AT_EPOCH":12030,"BSTAR":-0.00030027362,"MEAN_MOTION_DOT":-1.0e-6,"MEAN_MOTION_DDOT":0},{"OBJECT_NAME":"ONEWEB-0637","OBJECT_ID":"2023-043AJ","EPOCH":"2025-09-15T13:30:38.252736","MEAN_MOTION":13.15548841,"ECCENTRICITY":0.0002241,"INCLINATION":87.9023,"RA_OF_ASC_NODE":314.0235,"ARG_OF_PERICENTER":94.6989,"MEAN_ANOMALY":265.4398,"EPHEMERIS_TYPE":0,"CLASSIFICATION_TYPE":"U","NORAD_CAT_ID":56078,"ELEMENT_SET_NO":999,"REV_AT_EPOCH":12032,"BSTAR":-0.00036547707,"MEAN_MOTION_DOT":-1.25e-6,"MEAN_MOTION_DDOT":0},{"OBJECT_NAME":"ONEWEB-0647","OBJECT_ID":"2023-043AK","EPOCH":"2025-09-15T13:23:45.780000","MEAN_MOTION":13.15549096,"ECCENTRICITY":0.00017639,"INCLINATION":87.9026,"RA_OF_ASC_NODE":314.0375,"ARG_OF_PERICENTER":92.0046,"MEAN_ANOMALY":268.1286,"EPHEMERIS_TYPE":0,"CLASSIFICATION_TYPE":"U","NORAD_CAT_ID":56079,"ELEMENT_SET_NO":999,"REV_AT_EPOCH":12031,"BSTAR":-0.00028035144,"MEAN_MOTION_DOT":-9.3e-7,"MEAN_MOTION_DDOT":0},{"OBJECT_NAME":"ONEWEB-0651","OBJECT_ID":"2023-043AL","EPOCH":"2025-09-15T13:16:56.283744","MEAN_MOTION":13.15548023,"ECCENTRICITY":0.00020775,"INCLINATION":87.9035,"RA_OF_ASC_NODE":314.0296,"ARG_OF_PERICENTER":90.9825,"MEAN_ANOMALY":269.1544,"EPHEMERIS_TYPE":0,"CLASSIFICATION_TYPE":"U","NORAD_CAT_ID":56080,"ELEMENT_SET_NO":999,"REV_AT_EPOCH":12151,"BSTAR":-0.00012651191,"MEAN_MOTION_DOT":-3.5e-7,"MEAN_MOTION_DDOT":0},{"OBJECT_NAME":"ONEWEB-0718","OBJECT_ID":"2023-043AM","EPOCH":"2025-09-15T13:10:05.347200","MEAN_MOTION":13.1554935,"ECCENTRICITY":0.00021802,"INCLINATION":87.903,"RA_OF_ASC_NODE":314.0118,"ARG_OF_PERICENTER":112.0159,"MEAN_ANOMALY":248.1203,"EPHEMERIS_TYPE":0,"CLASSIFICATION_TYPE":"U","NORAD_CAT_ID":56081,"ELEMENT_SET_NO":999,"REV_AT_EPOCH":12032,"BSTAR":6.5529345e-5,"MEAN_MOTION_DOT":3.7e-7,"MEAN_MOTION_DDOT":0},{"OBJECT_NAME":"ONEWEB-0561","OBJECT_ID":"2023-068A","EPOCH":"2025-09-15T13:54:20.622240","MEAN_MOTION":13.20770522,"ECCENTRICITY":0.00018146,"INCLINATION":87.9263,"RA_OF_ASC_NODE":329.204,"ARG_OF_PERICENTER":83.1761,"MEAN_ANOMALY":276.9579,"EPHEMERIS_TYPE":0,"CLASSIFICATION_TYPE":"U","NORAD_CAT_ID":56710,"ELEMENT_SET_NO":999,"REV_AT_EPOCH":11325,"BSTAR":-0.00013780483,"MEAN_MOTION_DOT":-4.3e-7,"MEAN_MOTION_DDOT":0},{"OBJECT_NAME":"ONEWEB-0668","OBJECT_ID":"2023-068B","EPOCH":"2025-09-15T13:48:54.210816","MEAN_MOTION":13.16592346,"ECCENTRICITY":0.0002311,"INCLINATION":87.8988,"RA_OF_ASC_NODE":283.4903,"ARG_OF_PERICENTER":102.8552,"MEAN_ANOMALY":257.2837,"EPHEMERIS_TYPE":0,"CLASSIFICATION_TYPE":"U","NORAD_CAT_ID":56711,"ELEMENT_SET_NO":999,"REV_AT_EPOCH":11564,"BSTAR":2.7401722e-5,"MEAN_MOTION_DOT":2.3e-7,"MEAN_MOTION_DDOT":0},{"OBJECT_NAME":"ONEWEB-0676","OBJECT_ID":"2023-068C","EPOCH":"2025-09-15T13:20:22.838496","MEAN_MOTION":13.16594585,"ECCENTRICITY":0.00019264,"INCLINATION":87.898,"RA_OF_ASC_NODE":283.5133,"ARG_OF_PERICENTER":82.5915,"MEAN_ANOMALY":277.5435,"EPHEMERIS_TYPE":0,"CLASSIFICATION_TYPE":"U","NORAD_CAT_ID":56712,"ELEMENT_SET_NO":999,"REV_AT_EPOCH":11556,"BSTAR":-9.6192677e-5,"MEAN_MOTION_DOT":-2.4e-7,"MEAN_MOTION_DDOT":0},{"OBJECT_NAME":"ONEWEB-0677","OBJECT_ID":"2023-068D","EPOCH":"2025-09-15T13:38:26.045664","MEAN_MOTION":13.20770925,"ECCENTRICITY":0.00021027,"INCLINATION":87.927,"RA_OF_ASC_NODE":329.1828,"ARG_OF_PERICENTER":93.2142,"MEAN_ANOMALY":266.9232,"EPHEMERIS_TYPE":0,"CLASSIFICATION_TYPE":"U","NORAD_CAT_ID":56713,"ELEMENT_SET_NO":999,"REV_AT_EPOCH":11355,"BSTAR":-0.00022113711,"MEAN_MOTION_DOT":-7.7e-7,"MEAN_MOTION_DDOT":0},{"OBJECT_NAME":"ONEWEB-0678","OBJECT_ID":"2023-068E","EPOCH":"2025-09-15T14:13:57.975168","MEAN_MOTION":13.15549153,"ECCENTRICITY":0.00015593,"INCLINATION":87.903,"RA_OF_ASC_NODE":313.9759,"ARG_OF_PERICENTER":94.0429,"MEAN_ANOMALY":266.088,"EPHEMERIS_TYPE":0,"CLASSIFICATION_TYPE":"U","NORAD_CAT_ID":56714,"ELEMENT_SET_NO":999,"REV_AT_EPOCH":11318,"BSTAR":0.00015547888,"MEAN_MOTION_DOT":7.1e-7,"MEAN_MOTION_DDOT":0},{"OBJECT_NAME":"ONEWEB-0679","OBJECT_ID":"2023-068F","EPOCH":"2025-09-15T14:25:23.225664","MEAN_MOTION":13.16594845,"ECCENTRICITY":0.00024055,"INCLINATION":87.8979,"RA_OF_ASC_NODE":283.4967,"ARG_OF_PERICENTER":89.8445,"MEAN_ANOMALY":270.2961,"EPHEMERIS_TYPE":0,"CLASSIFICATION_TYPE":"U","NORAD_CAT_ID":56715,"ELEMENT_SET_NO":999,"REV_AT_EPOCH":11559,"BSTAR":0.00024365713,"MEAN_MOTION_DOT":1.06e-6,"MEAN_MOTION_DDOT":0},{"OBJECT_NAME":"ONEWEB-0680","OBJECT_ID":"2023-068G","EPOCH":"2025-09-15T13:06:50.575680","MEAN_MOTION":13.21825206,"ECCENTRICITY":0.00025077,"INCLINATION":87.9199,"RA_OF_ASC_NODE":298.7684,"ARG_OF_PERICENTER":102.764,"MEAN_ANOMALY":257.3774,"EPHEMERIS_TYPE":0,"CLASSIFICATION_TYPE":"U","NORAD_CAT_ID":56716,"ELEMENT_SET_NO":999,"REV_AT_EPOCH":11481,"BSTAR":9.499076e-6,"MEAN_MOTION_DOT":1.7e-7,"MEAN_MOTION_DDOT":0},{"OBJECT_NAME":"ONEWEB-0681","OBJECT_ID":"2023-068H","EPOCH":"2025-09-15T14:24:03.504384","MEAN_MOTION":13.21827281,"ECCENTRICITY":0.00024822,"INCLINATION":87.9202,"RA_OF_ASC_NODE":298.7748,"ARG_OF_PERICENTER":69.6834,"MEAN_ANOMALY":290.4566,"EPHEMERIS_TYPE":0,"CLASSIFICATION_TYPE":"U","NORAD_CAT_ID":56717,"ELEMENT_SET_NO":999,"REV_AT_EPOCH":11481,"BSTAR":1.4923192e-5,"MEAN_MOTION_DOT":1.9e-7,"MEAN_MOTION_DDOT":0},{"OBJECT_NAME":"ONEWEB-0682","OBJECT_ID":"2023-068J","EPOCH":"2025-09-15T13:02:05.763264","MEAN_MOTION":13.15548569,"ECCENTRICITY":0.00024028,"INCLINATION":87.9025,"RA_OF_ASC_NODE":314.0058,"ARG_OF_PERICENTER":101.7698,"MEAN_ANOMALY":258.3702,"EPHEMERIS_TYPE":0,"CLASSIFICATION_TYPE":"U","NORAD_CAT_ID":56718,"ELEMENT_SET_NO":999,"REV_AT_EPOCH":11334,"BSTAR":0.00026317002,"MEAN_MOTION_DOT":1.12e-6,"MEAN_MOTION_DDOT":0}]
