ONEWEB-0634             
1 56075U 23043AF  25258.58193429 -.00000144  00000+0 -41675-3 0  9994
2 56075  87.9035 314.0275 0001976 107.1617 252.9729 13.15549789120297
ONEWEB-0635             
1 56076U 23043AG  25258.57719266 -.00000133  00000+0 -38630-3 0  9992
2 56076  87.9012 313.9909 0001981  88.6491 271.4867 13.15549088120329
ONEWEB-0636             
1 56077U 23043AH  25258.56926356 -.00000100  00000+0 -30027-3 0  9998
2 56077  87.9023 314.0093 0001954  90.3844 269.7511 13.15549374120302
ONEWEB-0637             
1 56078U 23043AJ  25258.56294274 -.00000125  00000+0 -36548-3 0  9997
2 56078  87.9023 314.0235 0002241  94.6989 265.4398 13.15548841120324
ONEWEB-0647             
1 56079U 23043AK  25258.55816875 -.00000093  00000+0 -28035-3 0  9990
2 56079  87.9026 314.0375 0001763  92.0046 268.1286 13.15549096120315
ONEWEB-0651             
1 56080U 23043AL  25258.55342921 -.00000035  00000+0 -12651-3 0  9991
2 56080  87.9035 314.0296 0002077  90.9825 269.1544 13.15548023121510
ONEWEB-0718             
1 56081U 23043AM  25258.54867300  .00000037  00000+0  65529-4 0  9997
2 56081  87.9030 314.0118 0002180 112.0159 248.1203 13.15549350120321
ONEWEB-0561             
1 56710U 23068A   25258.57940535 -.00000043  00000+0 -13780-3 0  9998
2 56710  87.9263 329.2040 0001814  83.1761 276.9579 13.20770522113252
ONEWEB-0668             
1 56711U 23068B   25258.57562744  .00000023  00000+0  27402-4 0  9994
2 56711  87.8988 283.4903 0002311 102.8552 257.2837 13.16592346115640
ONEWEB-0676             
1 56712U 23068C   25258.55581989 -.00000024  00000+0 -96193-4 0  9991
2 56712  87.8980 283.5133 0001926  82.5915 277.5435 13.16594585115564
ONEWEB-0677             
1 56713U 23068D   25258.56835701 -.00000077  00000+0 -22114-3 0  9996
2 56713  87.9270 329.1828 0002102  93.2142 266.9232 13.20770925113557
ONEWEB-0678             
1 56714U 23068E   25258.59303212  .00000071  00000+0  15548-3 0  9992
2 56714  87.9030 313.9759 0001559  94.0429 266.0880 13.15549153113188
ONEWEB-0679             
1 56715U 23068F   25258.60096326  .00000106  00000+0  24366-3 0  9997
2 56715  87.8979 283.4967 0002405  89.8445 270.2961 13.16594845115596
ONEWEB-0680             
1 56716U 23068G   25258.54641870  .00000017  00000+0  94991-5 0  9995
2 56716  87.9199 298.7684 0002507 102.7640 257.3774 13.21825206114818
ONEWEB-0681             
1 56717U 23068H   25258.60004056  .00000019  00000+0  14923-4 0  9990
2 56717  87.9202 298.7748 0002482  69.6834 290.4566 13.21827281114815
ONEWEB-0682             
1 56718U 23068J   25258.54312226  .00000112  00000+0  26317-3 0  9998
2 56718  87.9025 314.0058 0002402 101.7698 258.3702 13.15548569113347
